GLOBALSTAR M024         
1 25883U 99043A   25064.84113233 -.00000116  00000+0 -18094-2 0  9996
2 25883  51.9986 253.8101 0000586 305.9817 157.2648 11.10163470103380
GLOBALSTAR M027         
1 25884U 99043B   25064.85928311 -.00000063  00000+0  13013-4 0  9997
2 25884  52.0248 328.8238 0021077 183.2909 176.7748 11.04371118129822
GLOBALSTAR M054         
1 25885U 99043C   25064.52264539 -.00000138  00000+0 -17056-2 0  9990
2 25885  52.0124 114.2674 0005627 358.8291 144.5777 11.39212767107232
GLOBALSTAR M053         
1 25886U 99043D   25064.74361163 -.00000076  00000+0 -22917-3 0  9990
2 25886  51.9990  55.0898 0003298 264.4640 267.3516 11.27663388107774
GLOBALSTAR M058         
1 25907U 99049A   25064.85227002 -.00000119  00000+0 -46665-3 0  9999
2 25907  51.9964  25.1042 0002364  72.1320 287.9772 11.93198359529202
GLOBALSTAR M050         
1 25908U 99049B   25064.89433619 -.00000056  00000+0  36860-3 0  9992
2 25908  52.0010  40.3841 0009023 184.2756 196.0350 12.07450240135717
GLOBALSTAR M033         
1 25909U 99049C   25064.89828285 -.00000123  00000+0 -30147-3 0  9998
2 25909  51.9903 279.3438 0014108  53.2340 306.9800 12.20286680523136
GLOBALSTAR M055         
1 25910U 99049D   25064.84249667 -.00000064  00000+0  25680-3 0  9995
2 25910  52.0020 295.2815 0006213 279.8767  80.1383 12.29422402155572
